[
    {
        "Altitude(m)": 555601.0448136507,
        "Argument of Periapsis(deg)": 0.033114955553567506,
        "Eccentricity": 0.0,
        "Inclination(deg)": 53.0,
        "Latitude(deg)": 33.25965637938858,
        "Longitude(deg)": -24.546704132650376,
        "Mean Anomaly(deg)": 43.18536433788791,
        "RAAN(deg)": 49.95071684264009,
        "Satellite Name": "Starlink Shell 1 241",
        "Satellite Number": 241,
        "Semi-Major Axis(m)": 6931778.249405717,
        "Time(s)": 950
    },
    {
        "Altitude(m)": 555680.9255217105,
        "Argument of Periapsis(deg)": 0.03346353403307874,
        "Eccentricity": 0.0,
        "Inclination(deg)": 53.0,
        "Latitude(deg)": 33.6961652569531,
        "Longitude(deg)": -24.04761320768519,
        "Mean Anomaly(deg)": 43.81219554144462,
        "RAAN(deg)": 49.95019807256261,
        "Satellite Name": "Starlink Shell 1 241",
        "Satellite Number": 241,
        "Semi-Major Axis(m)": 6931778.249405717,
        "Time(s)": 960
    },
    {
        "Altitude(m)": 555761.4133514548,
        "Argument of Periapsis(deg)": 0.03381211251258998,
        "Eccentricity": 0.0,
        "Inclination(deg)": 53.0,
        "Latitude(deg)": 34.13025585656792,
        "Longitude(deg)": -23.54305040356387,
        "Mean Anomaly(deg)": 44.439026745001335,
        "RAAN(deg)": 49.94967930248514,
        "Satellite Name": "Starlink Shell 1 241",
        "Satellite Number": 241,
        "Semi-Major Axis(m)": 6931778.249405717,
        "Time(s)": 970
    },
    {
        "Altitude(m)": 555842.4527059294,
        "Argument of Periapsis(deg)": 0.034160690992101214,
        "Eccentricity": 0.0,
        "Inclination(deg)": 53.0,
        "Latitude(deg)": 34.56186447903108,
        "Longitude(deg)": -23.032900377806687,
        "Mean Anomaly(deg)": 45.06585794855803,
        "RAAN(deg)": 49.94916053240767,
        "Satellite Name": "Starlink Shell 1 241",
        "Satellite Number": 241,
        "Semi-Major Axis(m)": 6931778.249405717,
        "Time(s)": 980
    },
    {
        "Altitude(m)": 555923.9879148123,
        "Argument of Periapsis(deg)": 0.034509269471612446,
        "Eccentricity": 0.0,
        "Inclination(deg)": 53.0,
        "Latitude(deg)": 34.99092595305431,
        "Longitude(deg)": -22.517046354647892,
        "Mean Anomaly(deg)": 45.69268915211476,
        "RAAN(deg)": 49.94864176233019,
        "Satellite Name": "Starlink Shell 1 241",
        "Satellite Number": 241,
        "Semi-Major Axis(m)": 6931778.249405717,
        "Time(s)": 990
    }
]